{
    "links": {
        "self": "http://www.neowsapp.com/rest/v1/neo/54017344?api_key=iIulBulltgU6a56xZRHN4H3l9WmuAYTsLGpBGhQ2"
    },
    "id": "54017344",
    "neo_reference_id": "54017344",
    "name": "(2020 LB)",
    "designation": "2020 LB",
    "nasa_jpl_url": "http://ssd.jpl.nasa.gov/sbdb.cgi?sstr=54017344",
    "absolute_magnitude_h": 24.759,
    "estimated_diameter": {
        "kilometers": {
            "estimated_diameter_min": 0.0296998993,
            "estimated_diameter_max": 0.0664109937
        },
        "meters": {
            "estimated_diameter_min": 29.6998992862,
            "estimated_diameter_max": 66.4109937289
        },
        "miles": {
            "estimated_diameter_min": 0.0184546561,
            "estimated_diameter_max": 0.0412658656
        },
        "feet": {
            "estimated_diameter_min": 97.4406175743,
            "estimated_diameter_max": 217.8838446657
        }
    },
    "is_potentially_hazardous_asteroid": false,
    "close_approach_data": [
        {
            "close_approach_date": "2020-06-03",
            "close_approach_date_full": "2020-Jun-03 20:25",
            "epoch_date_close_approach": 1591215900000,
            "relative_velocity": {
                "kilometers_per_second": "15.012015206",
                "kilometers_per_hour": "54043.2547417145",
                "miles_per_hour": "33580.3768143725"
            },
            "miss_distance": {
                "astronomical": "0.0213646499",
                "lunar": "8.3108488111",
                "kilometers": "3196106.118335713",
                "miles": "1985968.2513623194"
            },
            "orbiting_body": "Earth"
        },
        {
            "close_approach_date": "2022-11-21",
            "close_approach_date_full": "2022-Nov-21 15:07",
            "epoch_date_close_approach": 1669043220000,
            "relative_velocity": {
                "kilometers_per_second": "29.1359280685",
                "kilometers_per_hour": "104889.3410466518",
                "miles_per_hour": "65174.1574964599"
            },
            "miss_distance": {
                "astronomical": "0.4893100748",
                "lunar": "190.3416190972",
                "kilometers": "73199744.959620676",
                "miles": "45484212.3869542888"
            },
            "orbiting_body": "Earth"
        },
        {
            "close_approach_date": "2135-06-06",
            "close_approach_date_full": "2135-Jun-06 15:04",
            "epoch_date_close_approach": 5220428640000,
            "relative_velocity": {
                "kilometers_per_second": "14.9733551124",
                "kilometers_per_hour": "53904.078404582",
                "miles_per_hour": "33493.8980508915"
            },
            "miss_distance": {
                "astronomical": "0.0275224724",
                "lunar": "10.7062417636",
                "kilometers": "4117303.248173788",
                "miles": "2558373.6050547544"
            },
            "orbiting_body": "Earth"
        }
    ],
    "orbital_data": {
        "orbit_id": "2",
        "orbit_determination_date": "2020-09-11 07:47:59",
        "first_observation_date": "2020-05-14",
        "last_observation_date": "2020-06-05",
        "data_arc_in_days": 22,
        "observations_used": 50,
        "orbit_uncertainty": "7",
        "minimum_orbit_intersection": ".021364",
        "jupiter_tisserand_invariant": "4.015",
        "epoch_osculation": "2459000.5",
        "eccentricity": ".5395487657407689",
        "semi_major_axis": "1.698422187998372",
        "inclination": "8.470016450233784",
        "ascending_node_longitude": "245.7379643223604",
        "orbital_period": "808.4755845538302",
        "perihelion_distance": ".7820405927571141",
        "perihelion_argument": "78.41297048366077",
        "aphelion_distance": "2.61480378323963",
        "perihelion_time": "2459052.677258784556",
        "mean_anomaly": "336.7663816677826",
        "mean_motion": ".4452824635374382",
        "equinox": "J2000",
        "orbit_class": {
            "orbit_class_type": "APO",
            "orbit_class_description": "Near-Earth asteroid orbits which cross the Earth’s orbit similar to that of 1862 Apollo",
            "orbit_class_range": "a (semi-major axis) > 1.0 AU; q (perihelion) < 1.017 AU"
        }
    },
    "is_sentry_object": false
}